STARLINK-32011          
1 60030U 24111Q   26068.33357202 -.00005549  00000+0 -17559-3 0  9999
2 60030  53.1604  76.9489 0001258  96.6358 263.4786 15.30159734 98984
KUIPER-00209            
1 67776U 26030N   26068.61786546  .00035298  00000+0  11963-2 0  9997
2 67776  51.8838 220.0775 0012191  59.1967 301.0215 15.30161950  5077
